{
    "links": {
        "self": "http://www.neowsapp.com/rest/v1/neo/54092915?api_key=iIulBulltgU6a56xZRHN4H3l9WmuAYTsLGpBGhQ2"
    },
    "id": "54092915",
    "neo_reference_id": "54092915",
    "name": "(2020 WE3)",
    "designation": "2020 WE3",
    "nasa_jpl_url": "http://ssd.jpl.nasa.gov/sbdb.cgi?sstr=54092915",
    "absolute_magnitude_h": 25.285,
    "estimated_diameter": {
        "kilometers": {
            "estimated_diameter_min": 0.0233106818,
            "estimated_diameter_max": 0.0521242692
        },
        "meters": {
            "estimated_diameter_min": 23.310681826,
            "estimated_diameter_max": 52.1242691648
        },
        "miles": {
            "estimated_diameter_min": 0.0144845817,
            "estimated_diameter_max": 0.0323885093
        },
        "feet": {
            "estimated_diameter_min": 76.478617362,
            "estimated_diameter_max": 171.0113872466
        }
    },
    "is_potentially_hazardous_asteroid": false,
    "close_approach_data": [
        {
            "close_approach_date": "2020-12-01",
            "close_approach_date_full": "2020-Dec-01 11:31",
            "epoch_date_close_approach": 1606822260000,
            "relative_velocity": {
                "kilometers_per_second": "7.5129312414",
                "kilometers_per_hour": "27046.5524689791",
                "miles_per_hour": "16805.6758938498"
            },
            "miss_distance": {
                "astronomical": "0.0673611425",
                "lunar": "26.2034844325",
                "kilometers": "10077083.438766475",
                "miles": "6261609.294168355"
            },
            "orbiting_body": "Earth"
        }
    ],
    "orbital_data": {
        "orbit_id": "9",
        "orbit_determination_date": "2020-12-08 05:24:02",
        "first_observation_date": "2020-11-21",
        "last_observation_date": "2020-12-08",
        "data_arc_in_days": 17,
        "observations_used": 59,
        "orbit_uncertainty": "8",
        "minimum_orbit_intersection": ".0666305",
        "jupiter_tisserand_invariant": "4.512",
        "epoch_osculation": "2459181.5",
        "eccentricity": ".289911899357674",
        "semi_major_axis": "1.479608673457696",
        "inclination": "12.71837332618749",
        "ascending_node_longitude": "247.4519075427982",
        "orbital_period": "657.3833944777264",
        "perihelion_distance": "1.050652512629487",
        "perihelion_argument": "188.4865631967344",
        "aphelion_distance": "1.908564834285905",
        "perihelion_time": "2459191.700337297481",
        "mean_anomaly": "354.414033792243",
        "mean_motion": ".5476256367656053",
        "equinox": "J2000",
        "orbit_class": {
            "orbit_class_type": "AMO",
            "orbit_class_description": "Near-Earth asteroid orbits similar to that of 1221 Amor",
            "orbit_class_range": "1.017 AU < q (perihelion) < 1.3 AU"
        }
    },
    "is_sentry_object": false
}